STARLINK-1070_new
1 14956C 20001AU  21326.14067898  .00001822  00000-0  12210-3 0  3264
2 14956  53.0522 148.1178 0001834  83.0578 307.4772 15.06391767    10
STARLINK-1070_old
1 24956C 20001AU  21325.11787367  .00003017  00000-0  20219-3 0  3255
2 24956  53.0519 152.7095 0001845  81.0674 159.7185 15.06387300    16
